{
  "type": "FeatureCollection",
  "features": [
    {
      "type": "Feature",
      "properties": {
        "norad_id": 28054,
        "name": "DMSP 5D-3 F16 (USA 172)",
        "group": "weather",
        "lat": 28.932150747088215,
        "lon": -179.42365548772258,
        "alt_km": 847.6135142572066,
        "timestamp": "2025-12-04T03:47:54.197099+00:00",
        "meta_object_name": "DMSP 5D-3 F16 (USA 172)",
        "meta_object_id": "2003-048A",
        "meta_epoch": "2025-12-03T19:25:08.762880",
        "meta_mean_motion": 14.14419024,
        "meta_eccentricity": 0.0006872,
        "meta_inclination": 99.0052,
        "meta_ra_of_asc_node": 355.1957,
        "meta_arg_of_pericenter": 348.0797,
        "meta_mean_anomaly": 185.6862,
        "meta_ephemeris_type": 0,
        "meta_classification_type": "U",
        "meta_norad_cat_id": 28054,
        "meta_element_set_no": 999,
        "meta_rev_at_epoch": 14186,
        "meta_bstar": 0.00013984,
        "meta_mean_motion_dot": 2.22e-06,
        "meta_mean_motion_ddot": 0,
        "tle_line1": "1 28054U 03048A   25337.80912920  .00000222  00000+0  13984-3 0  9998",
        "tle_line2": "2 28054  99.0052 355.1957 0006872 348.0797 185.6862 14.14419024141868"
      },
      "geometry": {
        "type": "Point",
        "coordinates": [
          -179.42365548772258,
          28.932150747088215
        ]
      }
    },
    {
      "type": "Feature",
      "properties": {
        "norad_id": 28912,
        "name": "METEOSAT-9 (MSG-2)",
        "group": "weather",
        "lat": 7.732243937465901,
        "lon": 176.06263354856708,
        "alt_km": 35778.04258272319,
        "timestamp": "2025-12-04T03:47:54.197166+00:00",
        "meta_object_name": "METEOSAT-9 (MSG-2)",
        "meta_object_id": "2005-049B",
        "meta_epoch": "2025-12-02T20:50:55.807872",
        "meta_mean_motion": 1.00271253,
        "meta_eccentricity": 0.00040042,
        "meta_inclination": 8.9157,
        "meta_ra_of_asc_node": 56.0648,
        "meta_arg_of_pericenter": 185.08,
        "meta_mean_anomaly": 189.154,
        "meta_ephemeris_type": 0,
        "meta_classification_type": "U",
        "meta_norad_cat_id": 28912,
        "meta_element_set_no": 999,
        "meta_rev_at_epoch": 503,
        "meta_bstar": 0,
        "meta_mean_motion_dot": 1.39e-06,
        "meta_mean_motion_ddot": 0,
        "tle_line1": "1 28912U 05049B   25336.86870148  .00000139  00000+0  00000+0 0  9992",
        "tle_line2": "2 28912   8.9157  56.0648 0004004 185.0800 189.1540  1.00271253  5030"
      },
      "geometry": {
        "type": "Point",
        "coordinates": [
          176.06263354856708,
          7.732243937465901
        ]
      }
    },
    {
      "type": "Feature",
      "properties": {
        "norad_id": 29522,
        "name": "DMSP 5D-3 F17 (USA 191)",
        "group": "weather",
        "lat": 73.39024735323271,
        "lon": -47.316109197804536,
        "alt_km": 842.1497885322879,
        "timestamp": "2025-12-04T03:47:54.197187+00:00",
        "meta_object_name": "DMSP 5D-3 F17 (USA 191)",
        "meta_object_id": "2006-050A",
        "meta_epoch": "2025-12-03T18:57:18.052992",
        "meta_mean_motion": 14.14913265,
        "meta_eccentricity": 0.0009164,
        "meta_inclination": 98.7394,
        "meta_ra_of_asc_node": 343.3652,
        "meta_arg_of_pericenter": 252.8756,
        "meta_mean_anomaly": 107.1414,
        "meta_ephemeris_type": 0,
        "meta_classification_type": "U",
        "meta_norad_cat_id": 29522,
        "meta_element_set_no": 999,
        "meta_rev_at_epoch": 98478,
        "meta_bstar": 0.00016733,
        "meta_mean_motion_dot": 2.8e-06,
        "meta_mean_motion_ddot": 0,
        "tle_line1": "1 29522U 06050A   25337.78979228  .00000280  00000+0  16733-3 0  9995",
        "tle_line2": "2 29522  98.7394 343.3652 0009164 252.8756 107.1414 14.14913265984783"
      },
      "geometry": {
        "type": "Point",
        "coordinates": [
          -47.316109197804536,
          73.39024735323271
        ]
      }
    },
    {
      "type": "Feature",
      "properties": {
        "norad_id": 32958,
        "name": "FENGYUN 3A",
        "group": "weather",
        "lat": 7.974425859979626,
        "lon": -83.35849405374515,
        "alt_km": 823.6775874063924,
        "timestamp": "2025-12-04T03:47:54.197207+00:00",
        "meta_object_name": "FENGYUN 3A",
        "meta_object_id": "2008-026A",
        "meta_epoch": "2025-12-03T10:50:37.603968",
        "meta_mean_motion": 14.19509646,
        "meta_eccentricity": 0.0008349,
        "meta_inclination": 98.6682,
        "meta_ra_of_asc_node": 277.1747,
        "meta_arg_of_pericenter": 339.0823,
        "meta_mean_anomaly": 21.001,
        "meta_ephemeris_type": 0,
        "meta_classification_type": "U",
        "meta_norad_cat_id": 32958,
        "meta_element_set_no": 999,
        "meta_rev_at_epoch": 90763,
        "meta_bstar": 0.00010748,
        "meta_mean_motion_dot": 1.83e-06,
        "meta_mean_motion_ddot": 0,
        "tle_line1": "1 32958U 08026A   25337.45182412  .00000183  00000+0  10748-3 0  9994",
        "tle_line2": "2 32958  98.6682 277.1747 0008349 339.0823  21.0010 14.19509646907639"
      },
      "geometry": {
        "type": "Point",
        "coordinates": [
          -83.35849405374515,
          7.974425859979626
        ]
      }
    },
    {
      "type": "Feature",
      "properties": {
        "norad_id": 35491,
        "name": "GOES 14",
        "group": "weather",
        "lat": -1.0293920208667542,
        "lon": 21.889214387476024,
        "alt_km": 35800.60785131528,
        "timestamp": "2025-12-04T03:47:54.197234+00:00",
        "meta_object_name": "GOES 14",
        "meta_object_id": "2009-033A",
        "meta_epoch": "2025-12-03T09:48:58.361184",
        "meta_mean_motion": 1.00272644,
        "meta_eccentricity": 0.000418,
        "meta_inclination": 1.173,
        "meta_ra_of_asc_node": 85.5185,
        "meta_arg_of_pericenter": 150.4444,
        "meta_mean_anomaly": 235.4417,
        "meta_ephemeris_type": 0,
        "meta_classification_type": "U",
        "meta_norad_cat_id": 35491,
        "meta_element_set_no": 999,
        "meta_rev_at_epoch": 463,
        "meta_bstar": 0,
        "meta_mean_motion_dot": -5e-07,
        "meta_mean_motion_ddot": 0,
        "tle_line1": "1 35491U 09033A   25337.40900881 -.00000050  00000+0  00000+0 0  9991",
        "tle_line2": "2 35491   1.1730  85.5185 0004180 150.4444 235.4417  1.00272644  4638"
      },
      "geometry": {
        "type": "Point",
        "coordinates": [
          21.889214387476024,
          -1.0293920208667542
        ]
      }
    },
    {
      "type": "Feature",
      "properties": {
        "norad_id": 35951,
        "name": "DMSP 5D-3 F18 (USA 210)",
        "group": "weather",
        "lat": -51.4645217878408,
        "lon": -34.07427385275475,
        "alt_km": 856.4298539252377,
        "timestamp": "2025-12-04T03:47:54.197249+00:00",
        "meta_object_name": "DMSP 5D-3 F18 (USA 210)",
        "meta_object_id": "2009-057A",
        "meta_epoch": "2025-12-03T11:04:19.663680",
        "meta_mean_motion": 14.14760563,
        "meta_eccentricity": 0.0012115,
        "meta_inclination": 98.8824,
        "meta_ra_of_asc_node": 313.909,
        "meta_arg_of_pericenter": 86.8754,
        "meta_mean_anomaly": 273.3805,
        "meta_ephemeris_type": 0,
        "meta_classification_type": "U",
        "meta_norad_cat_id": 35951,
        "meta_element_set_no": 999,
        "meta_rev_at_epoch": 83191,
        "meta_bstar": 0.00021942,
        "meta_mean_motion_dot": 3.79e-06,
        "meta_mean_motion_ddot": 0,
        "tle_line1": "1 35951U 09057A   25337.46133870  .00000379  00000+0  21942-3 0  9995",
        "tle_line2": "2 35951  98.8824 313.9090 0012115  86.8754 273.3805 14.14760563831914"
      },
      "geometry": {
        "type": "Point",
        "coordinates": [
          -34.07427385275475,
          -51.4645217878408
        ]
      }
    },
    {
      "type": "Feature",
      "properties": {
        "norad_id": 36411,
        "name": "EWS-G2 (GOES 15)",
        "group": "weather",
        "lat": 0.7413128320330477,
        "lon": -168.37862486018358,
        "alt_km": 35776.085515255996,
        "timestamp": "2025-12-04T03:47:54.197262+00:00",
        "meta_object_name": "EWS-G2 (GOES 15)",
        "meta_object_id": "2010-008A",
        "meta_epoch": "2025-12-03T20:07:48.026784",
        "meta_mean_motion": 1.00267792,
        "meta_eccentricity": 0.0005988,
        "meta_inclination": 0.7902,
        "meta_ra_of_asc_node": 86.0551,
        "meta_arg_of_pericenter": 169.9666,
        "meta_mean_anomaly": 180.3456,
        "meta_ephemeris_type": 0,
        "meta_classification_type": "U",
        "meta_norad_cat_id": 36411,
        "meta_element_set_no": 999,
        "meta_rev_at_epoch": 5767,
        "meta_bstar": 0,
        "meta_mean_motion_dot": 5.5e-07,
        "meta_mean_motion_ddot": 0,
        "tle_line1": "1 36411U 10008A   25337.83875031  .00000055  00000+0  00000+0 0  9997",
        "tle_line2": "2 36411   0.7902  86.0551 0005988 169.9666 180.3456  1.00267792 57679"
      },
      "geometry": {
        "type": "Point",
        "coordinates": [
          -168.37862486018358,
          0.7413128320330477
        ]
      }
    }
  ]
}